1 27663U 03005A   18099.52170503 -.00000054 +00000-0 +00000-0 0  9992
2 27663 056.5788 333.3331 0099091 027.2221 259.3894 02.00571339111326

